{
  "type": "FeatureCollection",
  "features": [
    {
      "type": "Feature",
      "properties": {
        "norad_id": 66534,
        "name": "STARLINK-35976",
        "group": "last-30-days",
        "lat": -41.29301925694048,
        "lon": 5.948974181399023,
        "alt_km": 404.177051178448,
        "timestamp": "2025-12-08T21:31:03.447319+00:00",
        "meta_object_name": "STARLINK-35976",
        "meta_object_id": "2025-265U",
        "meta_epoch": "2025-12-08T14:00:01.999872",
        "meta_mean_motion": 15.56458186,
        "meta_eccentricity": 0.00015633,
        "meta_inclination": 43,
        "meta_ra_of_asc_node": 78.279,
        "meta_arg_of_pericenter": 280.8136,
        "meta_mean_anomaly": 47.435,
        "meta_ephemeris_type": 0,
        "meta_classification_type": "U",
        "meta_norad_cat_id": 66534,
        "meta_element_set_no": 999,
        "meta_rev_at_epoch": 432,
        "meta_bstar": -0.031782921,
        "meta_mean_motion_dot": -0.02060194,
        "meta_mean_motion_ddot": 0,
        "tle_line1": "1 66534U 25265U   25342.58335648 -.02060194  00000+0 -31783-1 0  9998",
        "tle_line2": "2 66534  43.0000  78.2790 0001563 280.8136  47.4350 15.56458186  4320"
      },
      "geometry": {
        "type": "Point",
        "coordinates": [
          5.948974181399023,
          -41.29301925694048
        ]
      }
    },
    {
      "type": "Feature",
      "properties": {
        "norad_id": 66535,
        "name": "STARLINK-35514",
        "group": "last-30-days",
        "lat": -40.830323085234625,
        "lon": 8.411624774639366,
        "alt_km": 404.27686109733713,
        "timestamp": "2025-12-08T21:31:03.447332+00:00",
        "meta_object_name": "STARLINK-35514",
        "meta_object_id": "2025-265V",
        "meta_epoch": "2025-12-08T14:00:01.999872",
        "meta_mean_motion": 15.56467978,
        "meta_eccentricity": 0.00014081,
        "meta_inclination": 43.0005,
        "meta_ra_of_asc_node": 78.2737,
        "meta_arg_of_pericenter": 278.0513,
        "meta_mean_anomaly": 52.1124,
        "meta_ephemeris_type": 0,
        "meta_classification_type": "U",
        "meta_norad_cat_id": 66535,
        "meta_element_set_no": 999,
        "meta_rev_at_epoch": 432,
        "meta_bstar": -0.032067574,
        "meta_mean_motion_dot": -0.0207722,
        "meta_mean_motion_ddot": 0,
        "tle_line1": "1 66535U 25265V   25342.58335648 -.02077220  00000+0 -32068-1 0  9994",
        "tle_line2": "2 66535  43.0005  78.2737 0001408 278.0513  52.1124 15.56467978  4324"
      },
      "geometry": {
        "type": "Point",
        "coordinates": [
          8.411624774639366,
          -40.830323085234625
        ]
      }
    },
    {
      "type": "Feature",
      "properties": {
        "norad_id": 66536,
        "name": "STARLINK-35640",
        "group": "last-30-days",
        "lat": -40.316454882607616,
        "lon": 10.833125194280058,
        "alt_km": 404.1955400037459,
        "timestamp": "2025-12-08T21:31:03.447345+00:00",
        "meta_object_name": "STARLINK-35640",
        "meta_object_id": "2025-265W",
        "meta_epoch": "2025-12-08T14:00:01.999872",
        "meta_mean_motion": 15.56466859,
        "meta_eccentricity": 0.00014924,
        "meta_inclination": 43.0004,
        "meta_ra_of_asc_node": 78.269,
        "meta_arg_of_pericenter": 281.313,
        "meta_mean_anomaly": 50.768,
        "meta_ephemeris_type": 0,
        "meta_classification_type": "U",
        "meta_norad_cat_id": 66536,
        "meta_element_set_no": 999,
        "meta_rev_at_epoch": 430,
        "meta_bstar": -0.032049717,
        "meta_mean_motion_dot": -0.02076167,
        "meta_mean_motion_ddot": 0,
        "tle_line1": "1 66536U 25265W   25342.58335648 -.02076167  00000+0 -32050-1 0  9995",
        "tle_line2": "2 66536  43.0004  78.2690 0001492 281.3130  50.7680 15.56466859  4303"
      },
      "geometry": {
        "type": "Point",
        "coordinates": [
          10.833125194280058,
          -40.316454882607616
        ]
      }
    },
    {
      "type": "Feature",
      "properties": {
        "norad_id": 66537,
        "name": "STARLINK-35582",
        "group": "last-30-days",
        "lat": -39.75275306901454,
        "lon": 13.215395244465293,
        "alt_km": 404.2589847151112,
        "timestamp": "2025-12-08T21:31:03.447355+00:00",
        "meta_object_name": "STARLINK-35582",
        "meta_object_id": "2025-265X",
        "meta_epoch": "2025-12-08T14:00:01.999872",
        "meta_mean_motion": 15.56456936,
        "meta_eccentricity": 0.00013496,
        "meta_inclination": 43.0001,
        "meta_ra_of_asc_node": 78.2645,
        "meta_arg_of_pericenter": 281.7581,
        "meta_mean_anomaly": 52.2407,
        "meta_ephemeris_type": 0,
        "meta_classification_type": "U",
        "meta_norad_cat_id": 66537,
        "meta_element_set_no": 999,
        "meta_rev_at_epoch": 432,
        "meta_bstar": -0.031728217,
        "meta_mean_motion_dot": -0.02056804,
        "meta_mean_motion_ddot": 0,
        "tle_line1": "1 66537U 25265X   25342.58335648 -.02056804  00000+0 -31728-1 0  9993",
        "tle_line2": "2 66537  43.0001  78.2645 0001349 281.7581  52.2407 15.56456936  4327"
      },
      "geometry": {
        "type": "Point",
        "coordinates": [
          13.215395244465293,
          -39.75275306901454
        ]
      }
    },
    {
      "type": "Feature",
      "properties": {
        "norad_id": 66538,
        "name": "STARLINK-35577",
        "group": "last-30-days",
        "lat": -39.14052743125794,
        "lon": 15.560162774266633,
        "alt_km": 404.24425818138934,
        "timestamp": "2025-12-08T21:31:03.447365+00:00",
        "meta_object_name": "STARLINK-35577",
        "meta_object_id": "2025-265Y",
        "meta_epoch": "2025-12-08T14:00:01.999872",
        "meta_mean_motion": 15.56468001,
        "meta_eccentricity": 0.00013505,
        "meta_inclination": 43.0004,
        "meta_ra_of_asc_node": 78.259,
        "meta_arg_of_pericenter": 283.6851,
        "meta_mean_anomaly": 52.2287,
        "meta_ephemeris_type": 0,
        "meta_classification_type": "U",
        "meta_norad_cat_id": 66538,
        "meta_element_set_no": 999,
        "meta_rev_at_epoch": 432,
        "meta_bstar": -0.032086505,
        "meta_mean_motion_dot": -0.02078277,
        "meta_mean_motion_ddot": 0,
        "tle_line1": "1 66538U 25265Y   25342.58335648 -.02078277  00000+0 -32087-1 0  9991",
        "tle_line2": "2 66538  43.0004  78.2590 0001350 283.6851  52.2287 15.56468001  4325"
      },
      "geometry": {
        "type": "Point",
        "coordinates": [
          15.560162774266633,
          -39.14052743125794
        ]
      }
    },
    {
      "type": "Feature",
      "properties": {
        "norad_id": 66539,
        "name": "STARLINK-35697",
        "group": "last-30-days",
        "lat": -38.48166145909175,
        "lon": 17.86321080310733,
        "alt_km": 404.1509889369636,
        "timestamp": "2025-12-08T21:31:03.447377+00:00",
        "meta_object_name": "STARLINK-35697",
        "meta_object_id": "2025-265Z",
        "meta_epoch": "2025-12-08T14:00:01.999872",
        "meta_mean_motion": 15.56465476,
        "meta_eccentricity": 0.00014478,
        "meta_inclination": 43.0004,
        "meta_ra_of_asc_node": 78.2539,
        "meta_arg_of_pericenter": 281.8353,
        "meta_mean_anomaly": 55.9956,
        "meta_ephemeris_type": 0,
        "meta_classification_type": "U",
        "meta_norad_cat_id": 66539,
        "meta_element_set_no": 999,
        "meta_rev_at_epoch": 432,
        "meta_bstar": -0.031991822,
        "meta_mean_motion_dot": -0.02072697,
        "meta_mean_motion_ddot": 0,
        "tle_line1": "1 66539U 25265Z   25342.58335648 -.02072697  00000+0 -31992-1 0  9996",
        "tle_line2": "2 66539  43.0004  78.2539 0001447 281.8353  55.9956 15.56465476  4329"
      },
      "geometry": {
        "type": "Point",
        "coordinates": [
          17.86321080310733,
          -38.48166145909175
        ]
      }
    },
    {
      "type": "Feature",
      "properties": {
        "norad_id": 66540,
        "name": "STARLINK-35818",
        "group": "last-30-days",
        "lat": -37.77859414605483,
        "lon": 20.122473692096982,
        "alt_km": 404.13317632119833,
        "timestamp": "2025-12-08T21:31:03.447387+00:00",
        "meta_object_name": "STARLINK-35818",
        "meta_object_id": "2025-265AA",
        "meta_epoch": "2025-12-08T14:00:01.999872",
        "meta_mean_motion": 15.56463071,
        "meta_eccentricity": 0.00014253,
        "meta_inclination": 43.0003,
        "meta_ra_of_asc_node": 78.2493,
        "meta_arg_of_pericenter": 282.9199,
        "meta_mean_anomaly": 56.829,
        "meta_ephemeris_type": 0,
        "meta_classification_type": "U",
        "meta_norad_cat_id": 66540,
        "meta_element_set_no": 999,
        "meta_rev_at_epoch": 432,
        "meta_bstar": -0.031924509,
        "meta_mean_motion_dot": -0.02068627,
        "meta_mean_motion_ddot": 0,
        "tle_line1": "1 66540U 25265AA  25342.58335648 -.02068627  00000+0 -31925-1 0  9992",
        "tle_line2": "2 66540  43.0003  78.2493 0001425 282.9199  56.8290 15.56463071  4325"
      },
      "geometry": {
        "type": "Point",
        "coordinates": [
          20.122473692096982,
          -37.77859414605483
        ]
      }
    }
  ]
}